ONEWEB-0706             
1 61611U 24188T   25275.88741503 -.00000443  00000+0 -13048-2 0  9995
2 61611  87.8740  87.5723 0002337  98.9785 261.1607 13.10372290 49682
ONEWEB-0707             
1 61612U 24188U   25275.89406032 -.00000565  00000+0 -16539-2 0  9995
2 61612  87.8753  87.5384 0002203 101.4052 258.7323 13.10374627 49626
ONEWEB-0708             
1 61613U 24188V   25275.53053661  .00000116  00000+0  29658-3 0  9990
2 61613  87.8756  87.6535 0002452  91.5062 268.6346 13.10376601 49556
